{
  "norad_id": 68327,
  "name": "STARLINK-37199",
  "history": [
    {
      "epoch": "2026-03-31T16:00:01.999584Z",
      "apogee_km": 328.86068024574706,
      "perigee_km": 327.44967637143145,
      "latitude_deg": -40.73417568229178,
      "longitude_deg": 43.557878406200516,
      "height_km": 342.13610546020334,
      "semi_major_axis_km": 6706.292178308589,
      "eccentricity": 0.0001052,
      "inclination_deg": 53.1596,
      "raan_deg": 252.6988,
      "arg_perigee_deg": 96.8453,
      "mean_anomaly_deg": 137.4335,
      "mean_motion_rev_day": 15.80807748
    }
  ]
}